ONEWEB-0504             
1 54122U 22138K   26027.79138896  .00000059  00000+0  11615-3 0  9998
2 54122  87.9251 332.9045 0001658  72.3783 287.7531 13.19726142158311
ONEWEB-0505             
1 54123U 22138L   26027.78822420  .00000058  00000+0  11198-3 0  9996
2 54123  87.9252 332.8986 0001392  64.3824 295.7453 13.19726525158292
ONEWEB-0506             
1 54124U 22138M   26027.76294635  .00000017  00000+0  91344-5 0  9994
2 54124  87.9252 332.9010 0001641  75.0494 285.0821 13.19727737158287
ONEWEB-0507             
1 54125U 22138N   26027.78346826  .00000131  00000+0  29469-3 0  9991
2 54125  87.9239 332.9240 0001579  77.8935 282.2375 13.19728566158338
ONEWEB-0508             
1 54126U 22138P   26027.55286651  .00000115  00000+0  25408-3 0  9997
2 54126  87.9245 332.9670 0001385  75.1049 285.0237 13.19727343158289
ONEWEB-0509             
1 54127U 22138Q   26027.37594916 -.00000003  00000+0 -40267-4 0  9993
2 54127  87.9254 332.9775 0001632  78.3553 281.7763 13.19728578158239
ONEWEB-0510             
1 54128U 22138R   26027.75415447 -.00000038  00000+0 -12563-3 0  9992
2 54128  87.9227 302.4573 0002106  83.1219 277.0153 13.20770866160747
ONEWEB-0511             
1 54129U 22138S   26027.37280389  .00000049  00000+0  90513-4 0  9998
2 54129  87.9254 332.9823 0001910  72.4023 287.7318 13.19727749158265
